41917,IRIDIUM 106,2017,100.4,860.0,+,86.39,Active,1,LEO,USA,USA,Commercial/Government,Communications,Falcon,1 41917U 17003A   25063.55336101  .00000432  00000+0  14716-3 0  9993,2 41917  86.3926 284.7695 0002166  73.0103 287.1330 14.34217091425892,14.34217091,0.0002166,LEO
41918,IRIDIUM 103,2017,100.4,860.0,+,86.39,Active,1,LEO,USA,USA,Commercial/Government,Communications,Falcon,1 41918U 17003B   25063.54069233  .00000190  00000+0  60912-4 0  9993,2 41918  86.3927 284.6758 0002744  88.1275 272.0235 14.34216787425924,14.34216787,0.0002744,LEO
41919,IRIDIUM 109,2017,100.4,860.0,+,86.39,Active,1,LEO,USA,USA,Commercial/Government,Communications,Falcon,1 41919U 17003C   25063.68655028  .00000379  00000+0  12819-3 0  9993,2 41919  86.3930 284.6665 0002216  93.6194 266.5255 14.34214958425929,14.34214958,0.0002216,LEO
41920,IRIDIUM 102,2017,100.4,860.0,+,86.39,Active,1,LEO,USA,USA,Commercial/Government,Communications,Falcon,1 41920U 17003D   25063.51530238  .00000520  00000+0  17865-3 0  9996,2 41920  86.3926 284.6718 0001962  88.3110 271.8310 14.34216232425963,14.34216232,0.0001962,LEO
41921,IRIDIUM 105,2017,100.4,860.0,+,86.39,Active,1,LEO,USA,USA,Commercial/Government,Communications,Falcon,1 41921U 17003E   25063.90465025  .00000023  00000+0  11298-5 0  9995,2 41921  86.3918 252.9186 0002155  89.4495 270.6948 14.34217479427875,14.34217479,0.0002155,LEO
41922,IRIDIUM 104,2017,100.4,860.0,+,86.39,Active,1,LEO,USA,USA,Commercial/Government,Communications,Falcon,1 41922U 17003F   25063.31868587  .00000496  00000+0  16998-3 0  9995,2 41922  86.3927 284.7895 0002442  96.9283 263.2190 14.34216875425923,14.34216875,0.0002442,LEO
41923,IRIDIUM 114,2017,100.4,860.0,+,86.39,Active,1,LEO,USA,USA,Commercial/Government,Communications,Falcon,1 41923U 17003G   25063.32502524  .00000226  00000+0  73520-4 0  9999,2 41923  86.3927 284.7719 0002360  87.3626 272.7840 14.34218796425902,14.34218796,0.000236,LEO
41924,IRIDIUM 108,2017,100.4,860.0,+,86.39,Active,1,LEO,USA,USA,Commercial/Government,Communications,Falcon,1 41924U 17003H   25063.49285184  .00000053  00000+0  11694-4 0  9990,2 41924  86.3914 252.9989 0001975  82.2968 277.8452 14.34215948427788,14.34215948,0.0001975,LEO
